[
    {
        "Altitude(m)": 604221.2077917216,
        "Argument of Periapsis(deg)": 0.0,
        "Eccentricity": 0.0,
        "Inclination(deg)": 60.0,
        "Latitude(deg)": 14.117265611191252,
        "Longitude(deg)": -1.6658772850959596,
        "Mean Anomaly(deg)": 16.363599999999998,
        "RAAN(deg)": 90.0,
        "Satellite Name": "Test1 397",
        "Satellite Number": 397,
        "Semi-Major Axis(m)": 6980739.136638005,
        "Time(s)": 0
    },
    {
        "Altitude(m)": 604235.3489385011,
        "Argument of Periapsis(deg)": 0.00010418945913296404,
        "Eccentricity": 0.0,
        "Inclination(deg)": 60.0,
        "Latitude(deg)": 14.651663003107569,
        "Longitude(deg)": -1.37743154340844,
        "Mean Anomaly(deg)": 16.983706145461827,
        "RAAN(deg)": 89.99957995086027,
        "Satellite Name": "Test1 397",
        "Satellite Number": 397,
        "Semi-Major Axis(m)": 6980739.136638005,
        "Time(s)": 10
    }
]